[{"OBJECT_ID":"2009-008A","OBJECT_NAME":"NSS 9","NORAD_CAT_ID":"33749","OBJECT_TYPE":"PAYLOAD","PERIOD":"1436.088","INCLINATION":"0.0513","APOGEE":"35795.516","PERIGEE":"35777.343","ECCENTRICITY":"0.0002155","MEAN_MOTION":"1.00272381","TLE_LINE1":"1 33749U 09008A   16238.71656884  .00000045  00000-0  00000+0 0  9996","TLE_LINE2":"2 33749   0.0513 299.2505 0002155 220.6118 255.5548  1.00272381 27649","LAUNCH_DATE":"2009-02-12","LAUNCH_SITE":"FRENCH GUIANA","OWNER":"SOCIÉTÉ EUROPÉENNE DES SATELLITES","ORBIT_TYPE":"Geosynchronous","OPERATIONAL_STATUS":"Operational","satInfo":{"lng":-65.56874280985248,"lat":-1.7333842099842667,"elevation":-10.25965823796153,"azimuth":20.56874280985243,"range":42849.028412612926,"height":35805.04822183088,"velocity":3.0742505164289775},"x":-326,"y":-148},{"OBJECT_ID":"2009-008B","OBJECT_NAME":"EUTE HOT BIRD 13D (HB10)","NORAD_CAT_ID":"33750","OBJECT_TYPE":"PAYLOAD","PERIOD":"1436.130","INCLINATION":"0.0776","APOGEE":"35811.544","PERIGEE":"35762.961","ECCENTRICITY":"0.0005761","MEAN_MOTION":"1.00269444","TLE_LINE1":"1 33750U 09008B   16239.02063299  .00000128  00000-0  00000+0 0  9997","TLE_LINE2":"2 33750   0.0776 293.3414 0005761 247.2522 194.6159  1.00269444 27687","LAUNCH_DATE":"2009-02-12","LAUNCH_SITE":"FRENCH GUIANA","OWNER":"EUROPEAN TELECOMMUNICATIONS SATELLITE ORGANIZATION (EUTELSAT)","ORBIT_TYPE":"Geosynchronous","OPERATIONAL_STATUS":"Operational","satInfo":{"lng":85.59475769909847,"lat":2.0844873872601917,"elevation":-6.532390969459565,"azimuth":229.40524230090153,"range":42412.144244146,"height":35786.52792118894,"velocity":3.0738299176649764},"x":357,"y":-27},{"OBJECT_ID":"2009-009A","OBJECT_NAME":"TELSTAR 11N","NORAD_CAT_ID":"34111","OBJECT_TYPE":"PAYLOAD","PERIOD":"1436.121","INCLINATION":"0.0179","APOGEE":"35795.221","PERIGEE":"35778.937","ECCENTRICITY":"0.0001931","MEAN_MOTION":"1.00270064","TLE_LINE1":"1 34111U 09009A   16239.25845900 -.00000279  00000-0  00000+0 0  9990","TLE_LINE2":"2 34111   0.0179 135.7910 0001931  61.3013 193.3064  1.00270064 27503","LAUNCH_DATE":"2009-02-26","LAUNCH_SITE":"TYURATAM MISSILE AND SPACE COMPLEX","OWNER":"CANADA","ORBIT_TYPE":"Geosynchronous","OPERATIONAL_STATUS":"Operational","satInfo":{"lng":-40.97163383752759,"lat":1.3314411217940962,"elevation":-7.274127269641521,"azimuth":355.9716338375276,"range":42480.36335598553,"height":35771.701017037514,"velocity":3.0755080688941066},"x":-235,"y":-270},{"OBJECT_ID":"2009-016A","OBJECT_NAME":"EUTE 10A (EUTE W2A)","NORAD_CAT_ID":"34710","OBJECT_TYPE":"PAYLOAD","PERIOD":"1436.117","INCLINATION":"0.0664","APOGEE":"35807.588","PERIGEE":"35766.418","ECCENTRICITY":"0.0004882","MEAN_MOTION":"1.00270335","TLE_LINE1":"1 34710U 09016A   16238.67960090  .00000041  00000-0  00000+0 0  9992","TLE_LINE2":"2 34710   0.0664 356.5461 0004882 158.2432  74.2210  1.00270335 27040","LAUNCH_DATE":"2009-04-03","LAUNCH_SITE":"TYURATAM MISSILE AND SPACE COMPLEX","OWNER":"EUROPEAN TELECOMMUNICATIONS SATELLITE ORGANIZATION (EUTELSAT)","ORBIT_TYPE":"Geosynchronous","OPERATIONAL_STATUS":"Operational","satInfo":{"lng":9.947507489454269,"lat":-0.14425340096064693,"elevation":-8.712591795562064,"azimuth":305.05249251054573,"range":42667.562419315545,"height":35797.20176379521,"velocity":3.0739000960122396},"x":62,"y":-353},{"OBJECT_ID":"2009-020B","OBJECT_NAME":"BLOCK DM-SL R/B","NORAD_CAT_ID":"34811","OBJECT_TYPE":"ROCKET BODY","PERIOD":"793.443","INCLINATION":"1.7499","APOGEE":"35473.278","PERIGEE":"8551.152","ECCENTRICITY":"0.4741422","MEAN_MOTION":"1.81487462","TLE_LINE1":"1 34811U 09020B   16239.50600978 -.00000141  00000-0  00000+0 0  9990","TLE_LINE2":"2 34811   1.7499 306.7989 4741422 252.9097  51.8898  1.81487462 48731","LAUNCH_DATE":"2009-04-20","LAUNCH_SITE":"SEA LAUNCH","OWNER":"SEA LAUNCH DEMO","ORBIT_TYPE":"Highly Elliptical Orbit","OPERATIONAL_STATUS":"N/A, derelict rocket body","satInfo":{"lng":-106.43048717683646,"lat":-0.26701337770924066,"elevation":-12.688557075680436,"azimuth":61.43048717683641,"range":29552.668397618123,"height":22453.121495608488,"velocity":3.689300353989973},"x":-215,"y":64},{"OBJECT_ID":"2009-027A","OBJECT_NAME":"SES 7 (PROTOSTAR 2)","NORAD_CAT_ID":"34941","OBJECT_TYPE":"PAYLOAD","PERIOD":"1436.094","INCLINATION":"0.0294","APOGEE":"35795.252","PERIGEE":"35777.847","ECCENTRICITY":"0.0002064","MEAN_MOTION":"1.00271953","TLE_LINE1":"1 34941U 09027A   16238.89955451 -.00000373 +00000-0 +00000-0 0  9999","TLE_LINE2":"2 34941 000.0294 075.6521 0002064 162.6303 168.3877 01.00271953026711","LAUNCH_DATE":"2009-05-16","LAUNCH_SITE":"TYURATAM MISSILE AND SPACE COMPLEX","OWNER":"SOCIÉTÉ EUROPÉENNE DES SATELLITES","ORBIT_TYPE":"Geosynchronous","OPERATIONAL_STATUS":"Operational","satInfo":{"lng":49.32940546204223,"lat":-2.2063765282937178,"elevation":-10.720863862039328,"azimuth":265.67059453795775,"range":42893.347635947524,"height":35797.74847361583,"velocity":3.0743227690476553},"x":272,"y":-233},{"OBJECT_ID":"2009-032A","OBJECT_NAME":"MEASAT 3A","NORAD_CAT_ID":"35362","OBJECT_TYPE":"PAYLOAD","PERIOD":"1436.193","INCLINATION":"0.0369","APOGEE":"35797.894","PERIGEE":"35779.062","ECCENTRICITY":"0.0002233","MEAN_MOTION":"1.00265074","TLE_LINE1":"1 35362U 09032A   16238.35483297  .00000000  00000-0  10000-3 0  9998","TLE_LINE2":"2 35362   0.0369 222.3526 0002233 341.6319 349.2463  1.00265074 26316","LAUNCH_DATE":"2009-06-21","LAUNCH_SITE":"TYURATAM MISSILE AND SPACE COMPLEX","OWNER":"MALAYSIA","ORBIT_TYPE":"Geosynchronous","OPERATIONAL_STATUS":"Operational","satInfo":{"lng":58.86473346316089,"lat":0.8401935277797985,"elevation":-7.751710761079536,"azimuth":256.1352665368391,"range":42551.87846276868,"height":35789.426011405165,"velocity":3.0744003633609336},"x":306,"y":-185},{"OBJECT_ID":"2009-033A","OBJECT_NAME":"GOES 14","NORAD_CAT_ID":"35491","OBJECT_TYPE":"PAYLOAD","PERIOD":"1436.091","INCLINATION":"0.3753","APOGEE":"35819.417","PERIGEE":"35753.564","ECCENTRICITY":"0.0007809","MEAN_MOTION":"1.00272162","TLE_LINE1":"1 35491U 09033A   16239.36008667 -.00000120  00000-0  00000+0 0  9997","TLE_LINE2":"2 35491   0.3753 270.4492 0007809 291.1163 158.3937  1.00272162 26248","LAUNCH_DATE":"2009-06-27","LAUNCH_SITE":"AIR FORCE EASTERN TEST RANGE","OWNER":"UNITED STATES OF AMERICA","ORBIT_TYPE":"Geosynchronous","OPERATIONAL_STATUS":"Operational (spare)","satInfo":{"lng":-104.9579051136817,"lat":-1.8121557786190237,"elevation":-10.345289566569795,"azimuth":59.95790511368162,"range":42812.61992989955,"height":35759.54794263623,"velocity":3.0766530314100713},"x":-345,"y":92},{"OBJECT_ID":"2009-034A","OBJECT_NAME":"SIRIUS FM-5","NORAD_CAT_ID":"35493","OBJECT_TYPE":"PAYLOAD","PERIOD":"1436.109","INCLINATION":"0.0157","APOGEE":"35788.217","PERIGEE":"35785.484","ECCENTRICITY":"3.24e-05","MEAN_MOTION":"1.00270879","TLE_LINE1":"1 35493U 09034A   16239.28970964 -.00000229  00000-0  00000+0 0  9999","TLE_LINE2":"2 35493   0.0157 101.3910 0000324 295.7342 315.9766  1.00270879 26059","LAUNCH_DATE":"2009-06-30","LAUNCH_SITE":"TYURATAM MISSILE AND SPACE COMPLEX","OWNER":"UNITED STATES OF AMERICA","ORBIT_TYPE":"Geosynchronous","OPERATIONAL_STATUS":"Operational","satInfo":{"lng":-101.8197250125509,"lat":2.2537545509907027,"elevation":-6.36417751384803,"azimuth":56.81972501255086,"range":42403.09330884701,"height":35796.23426357488,"velocity":3.074323232763228},"x":-350,"y":73},{"OBJECT_ID":"2009-042A","OBJECT_NAME":"ASIASAT 5","NORAD_CAT_ID":"35696","OBJECT_TYPE":"PAYLOAD","PERIOD":"1436.125","INCLINATION":"0.0076","APOGEE":"35794.457","PERIGEE":"35779.859","ECCENTRICITY":"0.0001731","MEAN_MOTION":"1.00269783","TLE_LINE1":"1 35696U 09042A   16238.97690623 -.00000335 +00000-0 +00000-0 0  9998","TLE_LINE2":"2 35696 000.0076 184.0672 0001731 293.6575 309.1007 01.00269783025756","LAUNCH_DATE":"2009-08-11","LAUNCH_SITE":"TYURATAM MISSILE AND SPACE COMPLEX","OWNER":"ASIASAT CORP","ORBIT_TYPE":"Geosynchronous","OPERATIONAL_STATUS":"Operational","satInfo":{"lng":50.488719432814015,"lat":-0.017860480872620405,"elevation":-8.58926144126893,"azimuth":264.51128056718596,"range":42653.19619512724,"height":35796.67963154412,"velocity":3.0740955234161946},"x":276,"y":-228},{"OBJECT_ID":"2009-044A","OBJECT_NAME":"JCSAT 12","NORAD_CAT_ID":"35755","OBJECT_TYPE":"PAYLOAD","PERIOD":"1436.031","INCLINATION":"0.0245","APOGEE":"35810.029","PERIGEE":"35760.605","ECCENTRICITY":"0.0005861","MEAN_MOTION":"1.00276349","TLE_LINE1":"1 35755U 09044A   16238.90252565  .00000000  00000-0  10000-3 0  9990","TLE_LINE2":"2 35755   0.0245  28.0313 0005861 291.9314 107.4948  1.00276349 25747","LAUNCH_DATE":"2009-08-21","LAUNCH_SITE":"FRENCH GUIANA","OWNER":"JAPAN","ORBIT_TYPE":"Geosynchronous","OPERATIONAL_STATUS":"Backup/Standby","satInfo":{"lng":113.05238346443994,"lat":0.5367995801652305,"elevation":-8.04765570186354,"azimuth":201.94761653556003,"range":42589.72065100326,"height":35794.007745629104,"velocity":3.074818188344294},"x":329,"y":140},{"OBJECT_ID":"2009-044B","OBJECT_NAME":"OPTUS D3","NORAD_CAT_ID":"35756","OBJECT_TYPE":"PAYLOAD","PERIOD":"1436.176","INCLINATION":"0.0399","APOGEE":"35798.971","PERIGEE":"35777.356","ECCENTRICITY":"0.0002563","MEAN_MOTION":"1.00266195","TLE_LINE1":"1 35756U 09044B   16238.69646267  .00000000  00000-0  10000-3 0  9993","TLE_LINE2":"2 35756   0.0399 353.0742 0002563 163.0726 224.9107  1.00266195 25714","LAUNCH_DATE":"2009-08-21","LAUNCH_SITE":"FRENCH GUIANA","OWNER":"AUSTRALIA","ORBIT_TYPE":"Geosynchronous","OPERATIONAL_STATUS":"Operational","satInfo":{"lng":-143.55405739803192,"lat":0.07472693925121428,"elevation":-8.497243339440669,"azimuth":98.55405739803193,"range":42650.81320181115,"height":35804.5329458211,"velocity":3.07437219315915},"x":-213,"y":288}]